start=new Date('2022-01-08T00:00:00.000Z').valueOf();
sats=[{"OBJECT_TYPE":"PAYLOAD","DECAY_DATE":null,"ARG_OF_PERICENTER":"63.2309","MEAN_MOTION_DOT":"0.00000239","PERIAPSIS":"545.766","TLE_LINE2":"2 45057  53.0542 278.2708 0002122  63.2309 296.8897 15.06392807107093","FILE":"3266804","GP_ID":"193422478","TLE_LINE1":"1 45057U 20006P   22007.88198328  .00000239  00000-0  34956-4 0  9992","INCLINATION":"53.0542","SITE":"AFETR","OBJECT_ID":"2020-006P","EPHEMERIS_TYPE":"0","MEAN_MOTION":"15.06392807","MEAN_ELEMENT_THEORY":"SGP4","ELEMENT_SET_NO":"999","REV_AT_EPOCH":"10709","RA_OF_ASC_NODE":"278.2708","MEAN_ANOMALY":"296.8897","RCS_SIZE":"LARGE","TIME_SYSTEM":"UTC","MEAN_MOTION_DDOT":"0.0000000000000","SEMIMAJOR_AXIS":"6925.371","BSTAR":"0.00003495600000","NORAD_CAT_ID":"45057","CENTER_NAME":"EARTH","LAUNCH_DATE":"2020-01-29","PERIOD":"95.593","EPOCH":"2022-01-07T21:10:03.355392","APOAPSIS":"548.705","CLASSIFICATION_TYPE":"U","OBJECT_NAME":"STARLINK-1159","ECCENTRICITY":"0.00021220","COUNTRY_CODE":"US","REF_FRAME":"TEME"},{"APOAPSIS":"548.607","CLASSIFICATION_TYPE":"U","EPOCH":"2022-01-07T17:48:22.045248","LAUNCH_DATE":"2020-01-29","PERIOD":"95.593","CENTER_NAME":"EARTH","ECCENTRICITY":"0.00019700","COUNTRY_CODE":"US","REF_FRAME":"TEME","OBJECT_NAME":"STARLINK-1162","RCS_SIZE":"LARGE","REV_AT_EPOCH":"10707","RA_OF_ASC_NODE":"278.9165","MEAN_ANOMALY":"297.5791","ELEMENT_SET_NO":"999","SEMIMAJOR_AXIS":"6925.378","BSTAR":"0.00000647000000","NORAD_CAT_ID":"45058","TIME_SYSTEM":"UTC","MEAN_MOTION_DDOT":"0.0000000000000","INCLINATION":"53.0534","TLE_LINE1":"1 45058U 20006Q   22007.74192182 -.00000185  00000-0  64700-5 0  9992","FILE":"3266804","GP_ID":"193422728","MEAN_ELEMENT_THEORY":"SGP4","MEAN_MOTION":"15.06390462","EPHEMERIS_TYPE":"0","SITE":"AFETR","OBJECT_ID":"2020-006Q","ARG_OF_PERICENTER":"62.5398","OBJECT_TYPE":"PAYLOAD","DECAY_DATE":null,"MEAN_MOTION_DOT":"-0.00000185","PERIAPSIS":"545.878","TLE_LINE2":"2 45058  53.0534 278.9165 0001970  62.5398 297.5791 15.06390462107073"},{"PERIOD":"95.592","LAUNCH_DATE":"2020-01-29","CENTER_NAME":"EARTH","APOAPSIS":"548.823","CLASSIFICATION_TYPE":"U","EPOCH":"2022-01-07T21:31:16.742784","OBJECT_NAME":"STARLINK-1165","ECCENTRICITY":"0.00023320","COUNTRY_CODE":"US","REF_FRAME":"TEME","ELEMENT_SET_NO":"999","RCS_SIZE":"LARGE","RA_OF_ASC_NODE":"278.2169","MEAN_ANOMALY":"301.7778","REV_AT_EPOCH":"10709","NORAD_CAT_ID":"45059","SEMIMAJOR_AXIS":"6925.343","BSTAR":"0.00021944000000","MEAN_MOTION_DDOT":"0.0000000000000","TIME_SYSTEM":"UTC","TLE_LINE1":"1 45059U 20006R   22007.89672156  .00002988  00000-0  21944-3 0  9996","GP_ID":"193423976","FILE":"3266804","INCLINATION":"53.0540","EPHEMERIS_TYPE":"0","OBJECT_ID":"2020-006R","SITE":"AFETR","MEAN_ELEMENT_THEORY":"SGP4","MEAN_MOTION":"15.06401807","DECAY_DATE":null,"OBJECT_TYPE":"PAYLOAD","ARG_OF_PERICENTER":"58.3438","PERIAPSIS":"545.593","TLE_LINE2":"2 45059  53.0540 278.2169 0002332  58.3438 301.7778 15.06401807107090","MEAN_MOTION_DOT":"0.00002988"},{"INCLINATION":"53.0545","TLE_LINE1":"1 45060U 20006S   22007.89304096 -.00000033  00000-0  16703-4 0  9991","GP_ID":"193423716","FILE":"3266804","MEAN_ELEMENT_THEORY":"SGP4","MEAN_MOTION":"15.06394202","EPHEMERIS_TYPE":"0","OBJECT_ID":"2020-006S","SITE":"AFETR","ARG_OF_PERICENTER":"56.1060","DECAY_DATE":null,"OBJECT_TYPE":"PAYLOAD","TLE_LINE2":"2 45060  53.0545 278.2362 0002119  56.1060 304.0130 15.06394202107090","PERIAPSIS":"545.764","MEAN_MOTION_DOT":"-0.00000033","APOAPSIS":"548.699","CLASSIFICATION_TYPE":"U","EPOCH":"2022-01-07T21:25:58.738944","LAUNCH_DATE":"2020-01-29","PERIOD":"95.593","CENTER_NAME":"EARTH","REF_FRAME":"TEME","COUNTRY_CODE":"US","ECCENTRICITY":"0.00021190","OBJECT_NAME":"STARLINK-1166","RCS_SIZE":"LARGE","RA_OF_ASC_NODE":"278.2362","MEAN_ANOMALY":"304.0130","REV_AT_EPOCH":"10709","ELEMENT_SET_NO":"999","NORAD_CAT_ID":"45060","BSTAR":"0.00001670300000","SEMIMAJOR_AXIS":"6925.366","TIME_SYSTEM":"UTC","MEAN_MOTION_DDOT":"0.0000000000000"},{"EPOCH":"2022-01-07T21:36:35.670240","CLASSIFICATION_TYPE":"U","APOAPSIS":"548.713","CENTER_NAME":"EARTH","LAUNCH_DATE":"2020-01-29","PERIOD":"95.592","COUNTRY_CODE":"US","REF_FRAME":"TEME","ECCENTRICITY":"0.00021410","OBJECT_NAME":"STARLINK-1169","MEAN_ANOMALY":"296.9785","RA_OF_ASC_NODE":"278.2092","REV_AT_EPOCH":"10709","RCS_SIZE":"LARGE","ELEMENT_SET_NO":"999","MEAN_MOTION_DDOT":"0.0000000000000","TIME_SYSTEM":"UTC","NORAD_CAT_ID":"45061","SEMIMAJOR_AXIS":"6925.366","BSTAR":"0.00003691800000","INCLINATION":"53.0556","GP_ID":"193422978","FILE":"3266804","TLE_LINE1":"1 45061U 20006T   22007.90041285  .00000268  00000-0  36918-4 0  9991","MEAN_MOTION":"15.06394468","MEAN_ELEMENT_THEORY":"SGP4","OBJECT_ID":"2020-006T","SITE":"AFETR","EPHEMERIS_TYPE":"0","ARG_OF_PERICENTER":"63.1422","DECAY_DATE":null,"OBJECT_TYPE":"PAYLOAD","TLE_LINE2":"2 45061  53.0556 278.2092 0002141  63.1422 296.9785 15.06394468107097","PERIAPSIS":"545.748","MEAN_MOTION_DOT":"0.00000268"},{"MEAN_MOTION_DOT":"-0.00000304","PERIAPSIS":"545.709","TLE_LINE2":"2 45062  53.0547 278.2588 0002209  60.5228 299.5981 15.06391749107094","ARG_OF_PERICENTER":"60.5228","OBJECT_TYPE":"PAYLOAD","DECAY_DATE":null,"MEAN_ELEMENT_THEORY":"SGP4","MEAN_MOTION":"15.06391749","EPHEMERIS_TYPE":"0","SITE":"AFETR","OBJECT_ID":"2020-006U","INCLINATION":"53.0547","TLE_LINE1":"1 45062U 20006U   22007.88566912 -.00000304  00000-0 -14773-5 0  9997","FILE":"3266804","GP_ID":"193423228","BSTAR":"-0.00000147730000","SEMIMAJOR_AXIS":"6925.374","NORAD_CAT_ID":"45062","MEAN_MOTION_DDOT":"0.0000000000000","TIME_SYSTEM":"UTC","RCS_SIZE":"LARGE","REV_AT_EPOCH":"10709","RA_OF_ASC_NODE":"278.2588","MEAN_ANOMALY":"299.5981","ELEMENT_SET_NO":"999","ECCENTRICITY":"0.00022090","COUNTRY_CODE":"US","REF_FRAME":"TEME","OBJECT_NAME":"STARLINK-1171","APOAPSIS":"548.769","CLASSIFICATION_TYPE":"U","EPOCH":"2022-01-07T21:15:21.811968","LAUNCH_DATE":"2020-01-29","PERIOD":"95.593","CENTER_NAME":"EARTH"},{"RCS_SIZE":"LARGE","REV_AT_EPOCH":"10737","RA_OF_ASC_NODE":"258.1953","MEAN_ANOMALY":"296.9097","ELEMENT_SET_NO":"999","SEMIMAJOR_AXIS":"6925.378","BSTAR":"0.00007083700000","NORAD_CAT_ID":"45064","MEAN_MOTION_DDOT":"0.0000000000000","TIME_SYSTEM":"UTC","CLASSIFICATION_TYPE":"U","APOAPSIS":"548.701","EPOCH":"2022-01-07T21:33:56.822976","LAUNCH_DATE":"2020-01-29","PERIOD":"95.593","CENTER_NAME":"EARTH","ECCENTRICITY":"0.00021050","COUNTRY_CODE":"US","REF_FRAME":"TEME","OBJECT_NAME":"STARLINK-1133","ARG_OF_PERICENTER":"63.2107","OBJECT_TYPE":"PAYLOAD","DECAY_DATE":null,"MEAN_MOTION_DOT":"0.00000773","TLE_LINE2":"2 45064  53.0539 258.1953 0002105  63.2107 296.9097 15.06390482107374","PERIAPSIS":"545.785","INCLINATION":"53.0539","TLE_LINE1":"1 45064U 20006W   22007.89857434  .00000773  00000-0  70837-4 0  9992","FILE":"3266804","GP_ID":"193423477","MEAN_ELEMENT_THEORY":"SGP4","MEAN_MOTION":"15.06390482","EPHEMERIS_TYPE":"0","SITE":"AFETR","OBJECT_ID":"2020-006W"},{"COUNTRY_CODE":"US","ECCENTRICITY":"0.00020800","REF_FRAME":"TEME","OBJECT_NAME":"STARLINK-1139","CLASSIFICATION_TYPE":"U","APOAPSIS":"548.682","EPOCH":"2022-01-07T21:39:15.187968","LAUNCH_DATE":"2020-01-29","PERIOD":"95.593","CENTER_NAME":"EARTH","SEMIMAJOR_AXIS":"6925.377","BSTAR":"-0.00004441300000","NORAD_CAT_ID":"45065","TIME_SYSTEM":"UTC","MEAN_MOTION_DDOT":"0.0000000000000","RCS_SIZE":"LARGE","REV_AT_EPOCH":"10737","MEAN_ANOMALY":"297.7604","RA_OF_ASC_NODE":"258.2006","ELEMENT_SET_NO":"999","MEAN_ELEMENT_THEORY":"SGP4","MEAN_MOTION":"15.06390859","EPHEMERIS_TYPE":"0","SITE":"AFETR","OBJECT_ID":"2020-006X","INCLINATION":"53.0539","TLE_LINE1":"1 45065U 20006X   22007.90225912 -.00000943  00000-0 -44413-4 0  9997","FILE":"3266804","GP_ID":"193424216","MEAN_MOTION_DOT":"-0.00000943","TLE_LINE2":"2 45065  53.0539 258.2006 0002080  62.3596 297.7604 15.06390859107370","PERIAPSIS":"545.801","ARG_OF_PERICENTER":"62.3596","OBJECT_TYPE":"PAYLOAD","DECAY_DATE":null},{"RCS_SIZE":"LARGE","REV_AT_EPOCH":"10736","MEAN_ANOMALY":"296.3027","RA_OF_ASC_NODE":"258.3149","ELEMENT_SET_NO":"999","SEMIMAJOR_AXIS":"6925.384","BSTAR":"-0.00003142900000","NORAD_CAT_ID":"45066","MEAN_MOTION_DDOT":"0.0000000000000","TIME_SYSTEM":"UTC","APOAPSIS":"548.713","CLASSIFICATION_TYPE":"U","EPOCH":"2022-01-07T21:02:05.655840","LAUNCH_DATE":"2020-01-29","PERIOD":"95.593","CENTER_NAME":"EARTH","ECCENTRICITY":"0.00021140","COUNTRY_CODE":"US","REF_FRAME":"TEME","OBJECT_NAME":"STARLINK-1145","ARG_OF_PERICENTER":"63.8179","OBJECT_TYPE":"PAYLOAD","DECAY_DATE":null,"MEAN_MOTION_DOT":"-0.00000750","PERIAPSIS":"545.785","TLE_LINE2":"2 45066  53.0548 258.3149 0002114  63.8179 296.3027 15.06388343107369","INCLINATION":"53.0548","TLE_LINE1":"1 45066U 20006Y   22007.87645435 -.00000750  00000-0 -31429-4 0  9999","FILE":"3266804","GP_ID":"193422479","MEAN_ELEMENT_THEORY":"SGP4","MEAN_MOTION":"15.06388343","EPHEMERIS_TYPE":"0","SITE":"AFETR","OBJECT_ID":"2020-006Y"},{"TLE_LINE2":"2 45067  53.0526 258.2308 0002277  63.7199 296.4024 15.06404323107379","PERIAPSIS":"545.623","MEAN_MOTION_DOT":"0.00002214","ARG_OF_PERICENTER":"63.7199","DECAY_DATE":null,"OBJECT_TYPE":"PAYLOAD","MEAN_ELEMENT_THEORY":"SGP4","MEAN_MOTION":"15.06404323","EPHEMERIS_TYPE":"0","OBJECT_ID":"2020-006Z","SITE":"AFETR","INCLINATION":"53.0526","TLE_LINE1":"1 45067U 20006Z   22007.89119223  .00002214  00000-0  16746-3 0  9992","GP_ID":"193422729","FILE":"3266804","NORAD_CAT_ID":"45067","SEMIMAJOR_AXIS":"6925.335","BSTAR":"0.00016746000000","MEAN_MOTION_DDOT":"0.0000000000000","TIME_SYSTEM":"UTC","RCS_SIZE":"LARGE","RA_OF_ASC_NODE":"258.2308","MEAN_ANOMALY":"296.4024","REV_AT_EPOCH":"10737","ELEMENT_SET_NO":"999","COUNTRY_CODE":"US","REF_FRAME":"TEME","ECCENTRICITY":"0.00022770","OBJECT_NAME":"STARLINK-1150","APOAPSIS":"548.777","CLASSIFICATION_TYPE":"U","EPOCH":"2022-01-07T21:23:19.008672","LAUNCH_DATE":"2020-01-29","PERIOD":"95.592","CENTER_NAME":"EARTH"}];
